STARLINK-30331          
1 57740U 23131J   26068.42143977 -.00001789  00000+0 -55499-4 0  9994
2 57740  43.0033 100.9149 0001185 268.4448  91.6268 15.27577219140736
LIZZIESAT-2 (LS-2)      
1 62383U 24247G   26068.49140277  .00009388  00000+0  34517-3 0  9997
2 62383  44.9909 117.0823 0004092 327.5136  32.5495 15.28222796 67716
